[{"OBJECT_NAME":"ONEWEB-0675","OBJECT_ID":"2023-029AQ","EPOCH":"2026-03-09T23:06:48.126528","MEAN_MOTION":13.19724685,"ECCENTRICITY":0.00019574,"INCLINATION":87.9222,"RA_OF_ASC_NODE":324.7495,"ARG_OF_PERICENTER":74.7124,"MEAN_ANOMALY":285.4225,"EPHEMERIS_TYPE":0,"CLASSIFICATION_TYPE":"U","NORAD_CAT_ID":55834,"ELEMENT_SET_NO":999,"REV_AT_EPOCH":14583,"BSTAR":-0.00015230399,"MEAN_MOTION_DOT":-4.8e-7,"MEAN_MOTION_DDOT":0},{"OBJECT_NAME":"DELTA 1 DEB","OBJECT_ID":"1975-052MN","EPOCH":"2026-03-08T16:41:22.952256","MEAN_MOTION":13.30821048,"ECCENTRICITY":0.00680262,"INCLINATION":99.765,"RA_OF_ASC_NODE":217.5591,"ARG_OF_PERICENTER":234.866,"MEAN_ANOMALY":140.1754,"EPHEMERIS_TYPE":0,"CLASSIFICATION_TYPE":"U","NORAD_CAT_ID":42653,"ELEMENT_SET_NO":999,"REV_AT_EPOCH":59713,"BSTAR":0.00012393727,"MEAN_MOTION_DOT":1.7e-7,"MEAN_MOTION_DDOT":0}]
